[{"OBJECT_NAME":"PROTOMETHEE","OBJECT_ID":"2023-174BT","EPOCH":"2026-03-09T23:28:08.029344","MEAN_MOTION":15.30202663,"ECCENTRICITY":0.00088339,"INCLINATION":97.3826,"RA_OF_ASC_NODE":147.9552,"ARG_OF_PERICENTER":148.5993,"MEAN_ANOMALY":211.5776,"EPHEMERIS_TYPE":0,"CLASSIFICATION_TYPE":"U","NORAD_CAT_ID":58321,"ELEMENT_SET_NO":999,"REV_AT_EPOCH":12979,"BSTAR":0.00015715731,"MEAN_MOTION_DOT":4.52e-5,"MEAN_MOTION_DDOT":0},{"OBJECT_NAME":"STARLINK-31095","OBJECT_ID":"2023-211S","EPOCH":"2026-03-09T10:41:02.039136","MEAN_MOTION":15.2759888,"ECCENTRICITY":0.00021865,"INCLINATION":43.0059,"RA_OF_ASC_NODE":86.9674,"ARG_OF_PERICENTER":291.6017,"MEAN_ANOMALY":68.4602,"EPHEMERIS_TYPE":0,"CLASSIFICATION_TYPE":"U","NORAD_CAT_ID":58683,"ELEMENT_SET_NO":999,"REV_AT_EPOCH":12369,"BSTAR":-0.00013971009,"MEAN_MOTION_DOT":-4.107e-5,"MEAN_MOTION_DDOT":0}]
